[
    {
        "Altitude(m)": 612513.8991919261,
        "Argument of Periapsis(deg)": 0.0,
        "Eccentricity": 0.0,
        "Inclination(deg)": 60.0,
        "Latitude(deg)": -28.135858368679298,
        "Longitude(deg)": 67.91314407443602,
        "Mean Anomaly(deg)": -147.2727,
        "RAAN(deg)": 330.0,
        "Satellite Name": "Test1 1465",
        "Satellite Number": 1465,
        "Semi-Major Axis(m)": 6980739.136638005,
        "Time(s)": 0
    },
    {
        "Altitude(m)": 612708.2666773725,
        "Argument of Periapsis(deg)": 0.00010418945913296404,
        "Eccentricity": 0.0,
        "Inclination(deg)": 60.0,
        "Latitude(deg)": -28.647597195842717,
        "Longitude(deg)": 68.27037472642225,
        "Mean Anomaly(deg)": -146.65259385453814,
        "RAAN(deg)": 329.9995799508602,
        "Satellite Name": "Test1 1465",
        "Satellite Number": 1465,
        "Semi-Major Axis(m)": 6980739.136638005,
        "Time(s)": 10
    }
]